STARLINK-36390          
1 67886U 26035H   26079.55395488  .00281205  00000+0  18178-2 0  9996
2 67886  97.2869  12.4843 0002290  81.5639 278.5886 15.75278062  5557
STARLINK-36368          
1 67887U 26035J   26080.23029822 -.00861489  00000+0 -55928-2 0  9994
2 67887  97.2882  13.2461 0001324  79.4280 280.7136 15.78175276  5664
STARLINK-36801          
1 67888U 26035K   26080.16667824 -.00157670  00000+0 -10720-2 0  9998
2 67888  97.2858  13.1767 0001651 117.0936 231.2392 15.75270983  5603
STARLINK-36372          
1 67889U 26035L   26080.16667824  .00134056  00000+0  88800-3 0  9995
2 67889  97.2871  13.1668 0001543 112.2975 216.1257 15.75127235  5602
STARLINK-36363          
1 67890U 26035M   26079.55042391  .00214759  00000+0  14011-2 0  9995
2 67890  97.2879  12.4895 0001634  81.6761 278.4690 15.75250962  5559
STARLINK-36816          
1 67891U 26035N   26080.28087495  .00504973  00000+0  24502-2 0  9998
2 67891  97.2904  13.3276 0003740  39.9525 320.2018 15.81146708  5678
STARLINK-36813          
1 67892U 26035P   26080.28537692  .00676113  00000+0  31862-2 0  9991
2 67892  97.2902  13.3200 0001383   6.1551 353.9734 15.81347089  5673
STARLINK-36803          
1 67893U 26035Q   26080.28987980  .00454302  00000+0  22265-2 0  9992
2 67893  97.2894  13.3169 0001550  53.7314 306.4098 15.81057397  5675
STARLINK-36846          
1 67894U 26035R   26079.74276691  .00303401  00000+0  19503-2 0  9996
2 67894  97.2886  12.6844 0003800  83.0005 277.1692 15.75343200  5580
STARLINK-36866          
1 67895U 26035S   26080.05263318  .00296154  00000+0  19017-2 0  9991
2 67895  97.2877  13.0266 0002973 138.9256 221.2234 15.75390337  5633
STARLINK-36877          
1 67896U 26035T   26080.28912880  .00493332  00000+0  23878-2 0  9999
2 67896  97.2902  13.3177 0000708 103.2764 256.8584 15.81229144  5670
STARLINK-36870          
1 67897U 26035U   26080.16667824 -.01783069  00000+0 -12516-1 0  9990
2 67897  97.2867  13.1913 0001436  94.0364 296.7296 15.77061768  5606
