CCSDS_OMM_VERS = 2.0
CREATION_DATE  = 
ORIGINATOR     = 

OBJECT_NAME    = STARLINK-36390
OBJECT_ID      = 2026-035H
CENTER_NAME    = EARTH
REF_FRAME      = TEME
TIME_SYSTEM    = UTC
MEAN_ELEMENT_THEORY = SGP/SGP4

EPOCH          = 2026-03-20T13:17:41.701632
MEAN_MOTION    = 15.75278062
ECCENTRICITY   = .000229
INCLINATION    = 97.2869
RA_OF_ASC_NODE = 12.4843
ARG_OF_PERICENTER = 81.5639
MEAN_ANOMALY   = 278.5886

EPHEMERIS_TYPE = 0
CLASSIFICATION_TYPE = U
NORAD_CAT_ID   = 67886
ELEMENT_SET_NO = 999
REV_AT_EPOCH   = 555
BSTAR          = .18178E-2
MEAN_MOTION_DOT = .281205E-2
MEAN_MOTION_DDOT = 0

CCSDS_OMM_VERS = 2.0
CREATION_DATE  = 
ORIGINATOR     = 

OBJECT_NAME    = STARLINK-36368
OBJECT_ID      = 2026-035J
CENTER_NAME    = EARTH
REF_FRAME      = TEME
TIME_SYSTEM    = UTC
MEAN_ELEMENT_THEORY = SGP/SGP4

EPOCH          = 2026-03-21T05:31:37.766208
MEAN_MOTION    = 15.78175276
ECCENTRICITY   = .00013242
INCLINATION    = 97.2882
RA_OF_ASC_NODE = 13.2461
ARG_OF_PERICENTER = 79.4280
MEAN_ANOMALY   = 280.7136

EPHEMERIS_TYPE = 0
CLASSIFICATION_TYPE = U
NORAD_CAT_ID   = 67887
ELEMENT_SET_NO = 999
REV_AT_EPOCH   = 566
BSTAR          = -.5592776E-2
MEAN_MOTION_DOT = -.861489E-2
MEAN_MOTION_DDOT = 0

CCSDS_OMM_VERS = 2.0
CREATION_DATE  = 
ORIGINATOR     = 

OBJECT_NAME    = STARLINK-36801
OBJECT_ID      = 2026-035K
CENTER_NAME    = EARTH
REF_FRAME      = TEME
TIME_SYSTEM    = UTC
MEAN_ELEMENT_THEORY = SGP/SGP4

EPOCH          = 2026-03-21T04:00:00.999936
MEAN_MOTION    = 15.75270983
ECCENTRICITY   = .00016511
INCLINATION    = 97.2858
RA_OF_ASC_NODE = 13.1767
ARG_OF_PERICENTER = 117.0936
MEAN_ANOMALY   = 231.2392

EPHEMERIS_TYPE = 0
CLASSIFICATION_TYPE = U
NORAD_CAT_ID   = 67888
ELEMENT_SET_NO = 999
REV_AT_EPOCH   = 560
BSTAR          = -.10719817E-2
MEAN_MOTION_DOT = -.15767E-2
MEAN_MOTION_DDOT = 0

CCSDS_OMM_VERS = 2.0
CREATION_DATE  = 
ORIGINATOR     = 

OBJECT_NAME    = STARLINK-36372
OBJECT_ID      = 2026-035L
CENTER_NAME    = EARTH
REF_FRAME      = TEME
TIME_SYSTEM    = UTC
MEAN_ELEMENT_THEORY = SGP/SGP4

EPOCH          = 2026-03-21T04:00:00.999936
MEAN_MOTION    = 15.75127235
ECCENTRICITY   = .00015432
INCLINATION    = 97.2871
RA_OF_ASC_NODE = 13.1668
ARG_OF_PERICENTER = 112.2975
MEAN_ANOMALY   = 216.1257

EPHEMERIS_TYPE = 0
CLASSIFICATION_TYPE = U
NORAD_CAT_ID   = 67889
ELEMENT_SET_NO = 999
REV_AT_EPOCH   = 560
BSTAR          = .88799866E-3
MEAN_MOTION_DOT = .134056E-2
MEAN_MOTION_DDOT = 0

CCSDS_OMM_VERS = 2.0
CREATION_DATE  = 
ORIGINATOR     = 

OBJECT_NAME    = STARLINK-36363
OBJECT_ID      = 2026-035M
CENTER_NAME    = EARTH
REF_FRAME      = TEME
TIME_SYSTEM    = UTC
MEAN_ELEMENT_THEORY = SGP/SGP4

EPOCH          = 2026-03-20T13:12:36.625824
MEAN_MOTION    = 15.75250962
ECCENTRICITY   = .0001634
INCLINATION    = 97.2879
RA_OF_ASC_NODE = 12.4895
ARG_OF_PERICENTER = 81.6761
MEAN_ANOMALY   = 278.4690

EPHEMERIS_TYPE = 0
CLASSIFICATION_TYPE = U
NORAD_CAT_ID   = 67890
ELEMENT_SET_NO = 999
REV_AT_EPOCH   = 555
BSTAR          = .14011E-2
MEAN_MOTION_DOT = .214759E-2
MEAN_MOTION_DDOT = 0

CCSDS_OMM_VERS = 2.0
CREATION_DATE  = 
ORIGINATOR     = 

OBJECT_NAME    = STARLINK-36816
OBJECT_ID      = 2026-035N
CENTER_NAME    = EARTH
REF_FRAME      = TEME
TIME_SYSTEM    = UTC
MEAN_ELEMENT_THEORY = SGP/SGP4

EPOCH          = 2026-03-21T06:44:27.595680
MEAN_MOTION    = 15.81146708
ECCENTRICITY   = .00037407
INCLINATION    = 97.2904
RA_OF_ASC_NODE = 13.3276
ARG_OF_PERICENTER = 39.9525
MEAN_ANOMALY   = 320.2018

EPHEMERIS_TYPE = 0
CLASSIFICATION_TYPE = U
NORAD_CAT_ID   = 67891
ELEMENT_SET_NO = 999
REV_AT_EPOCH   = 567
BSTAR          = .24502384E-2
MEAN_MOTION_DOT = .504973E-2
MEAN_MOTION_DDOT = 0

CCSDS_OMM_VERS = 2.0
CREATION_DATE  = 
ORIGINATOR     = 

OBJECT_NAME    = STARLINK-36813
OBJECT_ID      = 2026-035P
CENTER_NAME    = EARTH
REF_FRAME      = TEME
TIME_SYSTEM    = UTC
MEAN_ELEMENT_THEORY = SGP/SGP4

EPOCH          = 2026-03-21T06:50:56.565888
MEAN_MOTION    = 15.81347089
ECCENTRICITY   = .00013835
INCLINATION    = 97.2902
RA_OF_ASC_NODE = 13.3200
ARG_OF_PERICENTER = 6.1551
MEAN_ANOMALY   = 353.9734

EPHEMERIS_TYPE = 0
CLASSIFICATION_TYPE = U
NORAD_CAT_ID   = 67892
ELEMENT_SET_NO = 999
REV_AT_EPOCH   = 567
BSTAR          = .31862279E-2
MEAN_MOTION_DOT = .676113E-2
MEAN_MOTION_DDOT = 0

CCSDS_OMM_VERS = 2.0
CREATION_DATE  = 
ORIGINATOR     = 

OBJECT_NAME    = STARLINK-36803
OBJECT_ID      = 2026-035Q
CENTER_NAME    = EARTH
REF_FRAME      = TEME
TIME_SYSTEM    = UTC
MEAN_ELEMENT_THEORY = SGP/SGP4

EPOCH          = 2026-03-21T06:57:25.614720
MEAN_MOTION    = 15.81057397
ECCENTRICITY   = .000155
INCLINATION    = 97.2894
RA_OF_ASC_NODE = 13.3169
ARG_OF_PERICENTER = 53.7314
MEAN_ANOMALY   = 306.4098

EPHEMERIS_TYPE = 0
CLASSIFICATION_TYPE = U
NORAD_CAT_ID   = 67893
ELEMENT_SET_NO = 999
REV_AT_EPOCH   = 567
BSTAR          = .22265369E-2
MEAN_MOTION_DOT = .454302E-2
MEAN_MOTION_DDOT = 0

CCSDS_OMM_VERS = 2.0
CREATION_DATE  = 
ORIGINATOR     = 

OBJECT_NAME    = STARLINK-36846
OBJECT_ID      = 2026-035R
CENTER_NAME    = EARTH
REF_FRAME      = TEME
TIME_SYSTEM    = UTC
MEAN_ELEMENT_THEORY = SGP/SGP4

EPOCH          = 2026-03-20T17:49:35.061024
MEAN_MOTION    = 15.75343200
ECCENTRICITY   = .00038
INCLINATION    = 97.2886
RA_OF_ASC_NODE = 12.6844
ARG_OF_PERICENTER = 83.0005
MEAN_ANOMALY   = 277.1692

EPHEMERIS_TYPE = 0
CLASSIFICATION_TYPE = U
NORAD_CAT_ID   = 67894
ELEMENT_SET_NO = 999
REV_AT_EPOCH   = 558
BSTAR          = .19503E-2
MEAN_MOTION_DOT = .303401E-2
MEAN_MOTION_DDOT = 0

CCSDS_OMM_VERS = 2.0
CREATION_DATE  = 
ORIGINATOR     = 

OBJECT_NAME    = STARLINK-36866
OBJECT_ID      = 2026-035S
CENTER_NAME    = EARTH
REF_FRAME      = TEME
TIME_SYSTEM    = UTC
MEAN_ELEMENT_THEORY = SGP/SGP4

EPOCH          = 2026-03-21T01:15:47.506752
MEAN_MOTION    = 15.75390337
ECCENTRICITY   = .00029739
INCLINATION    = 97.2877
RA_OF_ASC_NODE = 13.0266
ARG_OF_PERICENTER = 138.9256
MEAN_ANOMALY   = 221.2234

EPHEMERIS_TYPE = 0
CLASSIFICATION_TYPE = U
NORAD_CAT_ID   = 67895
ELEMENT_SET_NO = 999
REV_AT_EPOCH   = 563
BSTAR          = .19017077E-2
MEAN_MOTION_DOT = .296154E-2
MEAN_MOTION_DDOT = 0

CCSDS_OMM_VERS = 2.0
CREATION_DATE  = 
ORIGINATOR     = 

OBJECT_NAME    = STARLINK-36877
OBJECT_ID      = 2026-035T
CENTER_NAME    = EARTH
REF_FRAME      = TEME
TIME_SYSTEM    = UTC
MEAN_ELEMENT_THEORY = SGP/SGP4

EPOCH          = 2026-03-21T06:56:20.728320
MEAN_MOTION    = 15.81229144
ECCENTRICITY   = .00007081
INCLINATION    = 97.2902
RA_OF_ASC_NODE = 13.3177
ARG_OF_PERICENTER = 103.2764
MEAN_ANOMALY   = 256.8584

EPHEMERIS_TYPE = 0
CLASSIFICATION_TYPE = U
NORAD_CAT_ID   = 67896
ELEMENT_SET_NO = 999
REV_AT_EPOCH   = 567
BSTAR          = .2387808E-2
MEAN_MOTION_DOT = .493332E-2
MEAN_MOTION_DDOT = 0

CCSDS_OMM_VERS = 2.0
CREATION_DATE  = 
ORIGINATOR     = 

OBJECT_NAME    = STARLINK-36870
OBJECT_ID      = 2026-035U
CENTER_NAME    = EARTH
REF_FRAME      = TEME
TIME_SYSTEM    = UTC
MEAN_ELEMENT_THEORY = SGP/SGP4

EPOCH          = 2026-03-21T04:00:00.999936
MEAN_MOTION    = 15.77061768
ECCENTRICITY   = .00014365
INCLINATION    = 97.2867
RA_OF_ASC_NODE = 13.1913
ARG_OF_PERICENTER = 94.0364
MEAN_ANOMALY   = 296.7296

EPHEMERIS_TYPE = 0
CLASSIFICATION_TYPE = U
NORAD_CAT_ID   = 67897
ELEMENT_SET_NO = 999
REV_AT_EPOCH   = 560
BSTAR          = -.12516005E-1
MEAN_MOTION_DOT = -.1783069E-1
MEAN_MOTION_DDOT = 0

